OBJECT_NAME,OBJECT_ID,EPOCH,MEAN_MOTION,ECCENTRICITY,INCLINATION,RA_OF_ASC_NODE,ARG_OF_PERICENTER,MEAN_ANOMALY,EPHEMERIS_TYPE,CLASSIFICATION_TYPE,NORAD_CAT_ID,ELEMENT_SET_NO,REV_AT_EPOCH,BSTAR,MEAN_MOTION_DOT,MEAN_MOTION_DDOT
COSMOS 2534 (758),2019-030A,2026-07-22T03:12:48.464928,2.13102306,.00134376,64.3713,191.4397,275.2090,33.8854,0,U,44299,999,5566,0,.93E-6,0
BEIDOU-3 IGSO-2 (C39),2019-035A,2026-07-21T18:25:21.211104,1.00289985,.00390505,55.2573,158.5594,212.8700,322.7485,0,U,44337,999,2601,0,-.106E-5,0
GPS BIII-2  (PRN 18),2019-056A,2026-07-22T18:51:39.472128,2.00570518,.00637525,55.6178,329.7278,198.2915,333.8944,0,U,44506,999,5078,0,-.112E-5,0
BEIDOU-3 M24 (C46),2019-061A,2026-07-22T16:21:12.916800,1.86229301,.00087473,54.3972,181.5308,0.3331,359.6504,0,U,44542,999,4645,0,.76E-6,0
BEIDOU-3 M23 (C45),2019-061B,2026-07-22T19:39:03.064608,1.86227471,.00060127,54.3962,181.4944,341.9460,21.5168,0,U,44543,999,4646,0,.75E-6,0
EUTELSAT 5 WEST B (EGNOS/PRN 121),2019-067A,2026-07-22T21:33:36.658080,1.00272092,.00032816,0.0727,326.9758,152.7469,139.3042,0,U,44624,999,2479,0,-.38E-6,0
BEIDOU-3 M22 (C44),2019-078A,2026-07-20T21:51:42.681888,1.86227204,.00056032,53.9028,298.6402,50.2813,309.8054,0,U,44793,999,4527,0,-.98E-6,0
BEIDOU-3 M21 (C43),2019-078B,2026-07-19T23:26:38.266656,1.86227606,.00035251,53.8770,298.6333,49.7600,310.3090,0,U,44794,999,4526,0,-.96E-6,0
COSMOS 2544 (759),2019-088A,2026-07-18T22:32:17.742336,2.13102904,.00120499,65.5828,72.6716,253.1294,106.8089,0,U,44850,999,5139,0,-.38E-6,0
BEIDOU-3 M19 (C41),2019-090A,2026-07-22T02:20:41.243712,1.86231513,.00165547,56.5900,61.6363,296.8524,242.7354,0,U,44864,999,4488,0,-.79E-6,0
BEIDOU-3 M20 (C42),2019-090B,2026-07-21T23:09:05.641632,1.86231478,.00142312,56.5915,61.6754,312.1692,227.7948,0,U,44865,999,4486,0,-.79E-6,0
BEIDOU-3 G2 (C60),2020-017A,2026-07-22T21:58:02.808192,1.00272671,.00021049,2.9351,47.8455,58.0055,244.3472,0,U,45344,999,2361,0,-.138E-5,0
COSMOS 2545 (760),2020-018A,2026-07-22T21:18:51.672384,2.13102496,.00099431,64.3314,311.1635,230.3379,129.5965,0,U,45358,999,4942,0,-.89E-6,0
BEIDOU-3 G3 (C61),2020-040A,2026-07-22T22:06:46.971072,1.00273231,.00022814,2.5331,67.5034,316.6925,358.7118,0,U,45807,999,2242,0,-.352E-5,0
GPS BIII-3  (PRN 23),2020-041A,2026-07-22T20:59:52.803744,2.00558039,.00656102,56.6939,27.5596,204.6648,328.6198,0,U,45854,999,4475,0,-.79E-6,0
GALAXY 30 (WAAS/PRN 135),2020-056C,2026-07-22T17:42:38.619072,1.00271378,.00022441,0.0146,67.1236,50.6582,323.3470,0,U,46114,999,2164,0,.41E-6,0
COSMOS 2547 (705K),2020-075A,2026-07-20T06:17:43.424160,2.13099966,.00094658,64.6016,191.3717,239.9348,119.9732,0,U,46805,999,4461,0,.83E-6,0
GPS BIII-4  (PRN 14),2020-078A,2026-07-22T09:39:35.987904,2.00565122,.00747076,53.9765,209.3500,207.9626,321.8106,0,U,46826,999,4221,0,.84E-6,0
GPS BIII-5  (PRN 11),2021-054A,2026-07-22T10:04:40.243008,2.00567016,.0026666,55.1554,331.0432,228.6022,140.0987,0,U,48859,999,3746,0,-.113E-5,0
QZS-1R (QZSS/PRN 196),2021-096A,2026-07-19T13:27:51.734016,1.00244085,.07555125,37.5263,79.1015,272.3091,279.1178,0,U,49336,999,1733,0,-.322E-5,0
GSAT0223 (GALILEO 27),2021-116A,2026-07-22T11:33:56.236896,1.70476501,.00025056,57.1475,340.7222,195.3315,345.6811,0,U,49809,999,2878,0,-.107E-5,0
GSAT0224 (GALILEO 28),2021-116B,2026-07-22T21:08:22.046208,1.70476615,.00020291,57.1470,340.7101,183.2200,355.2473,0,U,49810,999,2881,0,-.106E-5,0
COSMOS 2557 (706K),2022-075A,2026-07-20T21:29:46.401216,2.13102143,.00108276,64.2766,313.2973,270.8513,89.0451,0,U,52984,999,3143,0,-.88E-6,0
COSMOS 2559 (707K),2022-130A,2026-07-21T04:25:53.062752,2.13101788,.00131713,64.2489,313.3698,181.7048,178.3110,0,U,54031,999,2941,0,-.89E-6,0
COSMOS 2564 (761),2022-161A,2026-07-21T23:11:24.870912,2.13102079,.00121703,64.7442,191.5572,224.6979,135.2103,0,U,54377,999,2837,0,.94E-6,0
GPS BIII-6  (PRN 28),2023-009A,2026-07-20T14:32:11.706720,2.00569363,.00052868,55.1257,147.2053,339.0004,198.4380,0,U,55268,999,2591,0,.29E-6,0
BEIDOU-3 G4 (C62),2023-066A,2026-07-22T22:15:08.669088,1.00270565,.0005155,0.4545,341.1324,182.5482,250.8292,0,U,56564,999,1175,0,-.276E-5,0
NVS-01 (IRNSS-1J),2023-076A,2026-07-22T22:12:08.956224,1.00275450,.00029234,2.0840,242.7167,17.3142,143.1804,0,U,56759,999,1147,0,-.33E-5,0
COSMOS 2569 (703K),2023-114A,2026-07-21T12:13:21.268416,2.13103851,.00094656,65.3220,71.4633,295.3236,64.6448,0,U,57517,999,2299,0,-.53E-6,0
BEIDOU-3 M28 (C50),2023-207A,2026-07-21T15:57:03.009024,1.86229818,.00022135,55.7837,61.1401,9.0129,351.0521,0,U,58654,999,1748,0,-.81E-6,0
BEIDOU-3 M26 (C48),2023-207B,2026-07-22T12:51:53.119008,1.86229852,.00016491,55.7870,61.0974,323.4621,36.5888,0,U,58655,999,1748,0,-.79E-6,0
